#aV2013  4 24  0  0  0.00000000     288 DD+AD WGS84 FIT  NGA
## 1737 259200.00000000   300.00000000 56406 0.0000000000000
+   30     1  2  3  4  5  6  7  8  9 10 11 12 13 14 15 16 17
+         18 19 20 21 22 23 24 25 26 28 29 31 32  0  0  0  0
+          0  0  0  0  0  0  0  0  0  0  0  0  0  0  0  0  0
+          0  0  0  0  0  0  0  0  0  0  0  0  0  0  0  0  0
+          0  0  0  0  0  0  0  0  0  0  0  0  0  0  0  0  0
++         2  2  2  2  2  2  2  2  2  2  2  2  2  2  2  2  2
++         2  2  2  2  2  2  2  2  2  2  2  2  2  2  2  0  0
++         0  0  0  0  0  0  0  0  0  0  0  0  0  0  0  0  0
++         0  0  0  0  0  0  0  0  0  0  0  0  0  0  0  0  0
++         0  0  0  0  0  0  0  0  0  0  0  0  0  0  0  0  0
%c cc cc ccc ccc cccc cccc cccc cccc ccccc ccccc ccccc ccccc
%c cc cc ccc ccc cccc cccc cccc cccc ccccc ccccc ccccc ccccc
%f  0.0000000  0.000000000  0.00000000000  0.000000000000000
%f  0.0000000  0.000000000  0.00000000000  0.000000000000000
%i    0    0    0    0      0      0      0      0         0
%i    0    0    0    0      0      0      0      0         0
/*      NGA, ST. LOUIS,MO.                                  
/*   EPHEMERIS COMPUTED FROM  1 DAYS OF DATA
/*   EPOCHA SMOOTHER  
/* CCCCCCCCCCCCCCCCCCCCCCCCCCCCCCCCCCCCCCCCCCCCCCCCCCCCCCCCC
*  2013  4 24  0 55  0.00000000                                                 
P  1  13971.350365 -22054.729254   4621.787532     19.117535                    
V  1     60.171374   6554.621286  31068.216833      0.036720                    
P  2 -16894.656942   1748.460350 -20095.427560    428.794231                    
V  2   9354.013434 -24496.874488 -10404.649782      0.018592                    
P  3  19671.773078   2355.908715  17282.111185    197.991190                    
V  3  14098.246760  18241.355514 -17786.911990      0.048155                    
P  4 -12269.590501 -10626.105249 -21271.729114    199.000625                    
V  4  11821.695502 -23713.810156   5375.601623      0.107708                    
P  5 -26554.520734   2081.720365   -311.009899   -392.593369                    
V  5     93.923262  -3080.935565 -31404.913053     -0.012169                    
P  6  20601.926568   8756.916133  14654.538738    261.122850                    
V  6   9639.989768  15796.390501 -22767.975581     -0.158923                    
P  7   4243.698722 -24041.603804  10131.382519    206.107201                    
V  7   7778.572079 -10523.194342 -28628.396866      0.042882                    
P  8  -2527.256844 -18712.846332  18519.198677      5.742451                    
V  8  13279.202206 -19353.344685 -18416.928539      0.001861                    
P  9 -14451.287652  -2893.028823  21541.505981    236.157000                    
V  9  11830.123137 -26074.599373   4262.701250      0.026128                    
P 10 -19842.463541  -9764.737109 -15294.311982    -77.592532                    
V 10  18610.921847  -3269.882190 -22074.532830     -0.011579                    
P 11  13148.252306 -18857.606088  12636.431297   -375.278049                    
V 11   1763.992682  17496.322108  23748.179640     -0.036445                    
P 12 -18596.265319  11132.524650 -15234.989167    130.041748                    
V 12 -19388.840632   -606.018326  23474.309522      0.020778                    
P 13  -1254.694315 -22223.212485 -14541.900698    125.729563                    
V 13  10321.150232  15111.310933 -24341.230453     -0.035910                    
P 14  14970.286635  21876.950211  -2452.366016    221.071740                    
V 14   -239.181786   4024.594648  31756.791705     -0.000538                    
P 15 -12455.776184   9437.977486  21444.898929   -116.435009                    
V 15 -16381.876599 -21936.229873    393.366247     -0.014715                    
P 16  26731.249361   -303.422934   -942.324993   -252.436283                    
V 16  -1099.608797   1805.483425 -32018.607239      0.001276                    
P 17 -15738.140714 -21377.385564  -2528.179547     26.617744                    
V 17    244.893433  -4253.558412  31476.498449     -0.039795                    
P 18   5064.474791  15602.244902  21324.993688    250.334811                    
V 18 -26131.877976   2514.832998   4094.200172      0.017969                    
P 19  14723.858624  -4541.229854  21582.154963   -367.339623                    
V 19  13475.214641  24047.526618  -3702.220175     -0.031411                    
P 20  14907.586006 -14574.201807 -16591.787474     94.500742                    
V 20  21003.722426   -464.270940  19556.400195      0.019218                    
P 21    394.429391  22878.448047  13586.176441   -293.642679                    
V 21  -9900.844732  13714.818697 -24335.909012     -0.021725                    
P 22  16712.257310  11691.335826  17277.319947    165.395447                    
V 22 -21388.995985   3899.616891  18110.510477      0.013758                    
P 23   5741.417344 -16493.674091 -19831.966679     92.312295                    
V 23  15432.887240  20292.822926 -12755.077987     -0.036420                    
P 24 -15450.382062  20008.566259   8070.077555     -5.054176                    
V 24   1839.003371 -10467.583988  29471.170067     -0.007510                    
P 25  -7270.464403  14879.365112 -20785.589341     90.438722                    
V 25 -26247.861401   1561.048390  10417.667585      0.038734                    
P 26 -17571.731656  -5697.576962  18571.655648    -14.989952                    
V 26 -11211.595051 -22125.290444 -16496.050310      0.151248                    
P 28 -12593.411469 -13017.275696  20071.177996    252.567058                    
V 28  24077.906913  -1403.769141  14453.261671      0.033376                    
P 29   1956.455132  22109.273993 -14567.587418    429.141901                    
V 29 -11534.437950 -14681.288235 -23694.124977      0.034516                    
P 31  12147.064668   8461.079313 -21864.304383    311.819023                    
V 31 -12871.850230  25023.828542   2784.227223      0.014209                    
P 32  22223.458103  -8103.705288 -11400.609012   -552.193986                    
V 32  14889.639530   3141.796396  26988.118757     -0.023102                    
EOF
